IRIDIUM 106             
1 41917U 17003A   23241.77736247  .00000493  00000+0  16891-3 0  9991
2 41917  86.4031 155.8207 0002506  79.2423 280.9055 14.34221559346664
IRIDIUM 103             
1 41918U 17003B   23241.83447637  .00000320  00000+0  10726-3 0  9991
2 41918  86.4030 155.6998 0002486  89.1978 270.9503 14.34217733346690
IRIDIUM 109             
1 41919U 17003C   23241.84081164  .00000318  00000+0  10653-3 0  9998
2 41919  86.4032 155.7397 0002151  91.1510 268.9932 14.34219800346668
IRIDIUM 102             
1 41920U 17003D   23241.87887067  .00000318  00000+0  10639-3 0  9993
2 41920  86.4030 155.6694 0002193  85.8199 274.3247 14.34219036346757
IRIDIUM 105             
1 41921U 17003E   23241.77980971  .00000294  00000+0  97932-4 0  9996
2 41921  86.3975 124.1594 0002170  85.0104 275.1339 14.34212650348598
IRIDIUM 104             
1 41922U 17003F   23241.82178500  .00000294  00000+0  97985-4 0  9998
2 41922  86.4031 155.7202 0002335  84.8664 275.2798 14.34214312346731
IRIDIUM 114             
1 41923U 17003G   23241.82812364  .00000319  00000+0  10684-3 0  9990
2 41923  86.4031 155.7044 0002221  76.8004 283.3440 14.34221346346716
IRIDIUM 108             
1 41924U 17003H   23241.78665054  .00000293  00000+0  97621-4 0  9996
2 41924  86.3969 124.1005 0002354  79.7730 280.3731 14.34218302348561
